CCSDS_OEM_VERS = 2.0
CREATION_DATE = 2024-09-30T11:00:55.228000000
ORIGINATOR = NONE

META_START
OBJECT_NAME = _SCPACE_OEM
OBJECT_ID = 1
CENTER_NAME = EARTH
REF_FRAME = EME2000
TIME_SYSTEM = UTC
START_TIME = 2024-09-29T00:00:00.000000000
STOP_TIME = 2024-09-30T08:00:00.000000000
INTERPOLATION = LAGRANGE
INTERPOLATION_DEGREE = 8
META_STOP

2024-09-29T13:18:00.000000000  3.738288546286652e+03  6.951421744247316e+02 -5.949112074228295e+03 -5.646236301166240e+00 -3.034675902085346e+00 -3.904355687015201e+00
2024-09-29T13:19:00.000000000  3.392152566908109e+03  5.117731618829327e+02 -6.171101744812468e+03 -5.887702718453274e+00 -3.075549606297125e+00 -3.492812080373480e+00
2024-09-29T13:20:00.000000000  3.032243776943435e+03  3.263260556324194e+02 -6.367968446152006e+03 -6.105177380061436e+00 -3.103923142417153e+00 -3.067207240506209e+00
2024-09-29T13:21:00.000000000  2.660027913628983e+03  1.395542889299561e+02 -6.538920044173074e+03 -6.297803547343816e+00 -3.119691418584923e+00 -2.629266737148837e+00
2024-09-29T13:22:00.000000000  2.277019188537095e+03 -4.778387524082893e+01 -6.683269250275650e+03 -6.464824658622661e+00 -3.122799702055247e+00 -2.180760734638362e+00
2024-09-29T13:23:00.000000000  1.884774007655755e+03 -2.349284672710000e+02 -6.800436217433141e+03 -6.605585750590332e+00 -3.113242633461192e+00 -1.723496495942459e+00
2024-09-29T13:24:00.000000000  1.484885028164343e+03 -4.211206394546453e+02 -6.889950474589563e+03 -6.719534979708822e+00 -3.091063935539025e+00 -1.259312675188998e+00
2024-09-29T13:25:00.000000000  1.078974906693993e+03 -6.056056302959388e+02 -6.951452641571047e+03 -6.806225439513303e+00 -3.056356399364966e+00 -7.900723622661374e-01
2024-09-29T13:26:00.000000000  6.686901665509466e+02 -7.876356100639426e+02 -6.984695749230347e+03 -6.865315454723500e+00 -3.009260958578503e+00 -3.176566411922796e-01
2024-09-29T13:27:00.000000000  2.556943284060268e+02 -9.664727700837467e+02 -6.989546023978236e+03 -6.896569770552984e+00 -2.949966165039171e+00  1.560406724130691e-01
2024-09-29T13:28:00.000000000 -1.583384497539205e+02 -1.141392118180926e+03 -6.965983456586547e+03 -6.899862254872854e+00 -2.878708492042227e+00  6.291193550799474e-01
2024-09-29T13:29:00.000000000 -5.717292099607115e+02 -1.311684079824303e+03 -6.914102243890234e+03 -6.875176809992656e+00 -2.795771599768963e+00  1.099681055489716e+00
2024-09-29T13:30:00.000000000 -9.828014055861535e+02 -1.476657511920328e+03 -6.834110207110677e+03 -6.822606177101811e+00 -2.701484470665026e+00  1.565837422909732e+00
2024-09-29T13:31:00.000000000 -1.389887689621197e+03 -1.635642474068389e+03 -6.726327726208345e+03 -6.742351469331760e+00 -2.596220435175458e+00  2.025715931891841e+00
2024-09-29T13:32:00.000000000 -1.791335515871400e+03 -1.787992573107615e+03 -6.591187348515870e+03 -6.634722393807466e+00 -2.480396768351814e+00  2.477465507364774e+00
2024-09-29T13:33:00.000000000 -2.185514678293721e+03 -1.933087897620239e+03 -6.429231371972963e+03 -6.500136582281342e+00 -2.354472931781854e+00  2.919265684473733e+00
2024-09-29T13:34:00.000000000 -2.570822786087431e+03 -2.070337168309324e+03 -6.241110627933761e+03 -6.339117870162895e+00 -2.218948507978394e+00  3.349331892311703e+00
2024-09-29T13:35:00.000000000 -2.945692258036829e+03 -2.199180315231752e+03 -6.027581582999237e+03 -6.152294843934484e+00 -2.074361285359173e+00  3.765922585416480e+00
2024-09-29T13:36:00.000000000 -3.308596267060547e+03 -2.319090626993014e+03 -5.789503821154852e+03 -5.940399049571044e+00 -1.921285872588857e+00  4.167345213957433e+00
2024-09-29T13:37:00.000000000 -3.658054920645959e+03 -2.429576936584119e+03 -5.527836870743386e+03 -5.704263309072088e+00 -1.760332309816205e+00  4.551962548427250e+00
2024-09-29T13:38:00.000000000 -3.992641396792022e+03 -2.530185725273473e+03 -5.243636480538597e+03 -5.444819954749440e+00 -1.592144199620500e+00  4.918200004810994e+00
2024-09-29T13:39:00.000000000 -4.310987608804841e+03 -2.620503001332794e+03 -4.938050977130041e+03 -5.163097871667309e+00 -1.417396188148773e+00  5.264552765907003e+00
2024-09-29T13:40:00.000000000 -4.611789587341334e+03 -2.700156078689509e+03 -4.612317324834715e+03 -4.860218832480892e+00 -1.236791371911386e+00  5.589591846789371e+00
2024-09-29T13:41:00.000000000 -4.893814367321629e+03 -2.768815377848397e+03 -4.267754182536085e+03 -4.537392357526798e+00 -1.051057943791742e+00  5.891971958958346e+00
2024-09-29T13:42:00.000000000 -5.155903442222954e+03 -2.826195534605359e+03 -3.905759514601401e+03 -4.195913149940337e+00 -8.609475389922354e-01  6.170435031524708e+00
2024-09-29T13:43:00.000000000 -5.396978374731283e+03 -2.872057009602274e+03 -3.527803963155946e+03 -3.837155987127912e+00 -6.672317800909783e-01  6.423817035100019e+00
2024-09-29T13:44:00.000000000 -5.616045609406151e+03 -2.906207044243129e+03 -3.135424665239993e+03 -3.462570738726960e+00 -4.706991119446133e-01  6.651053859328410e+00
2024-09-29T13:45:00.000000000 -5.812200704340963e+03 -2.928500639714010e+03 -2.730219748863298e+03 -3.073677094931331e+00 -2.721519378461604e-01  6.851186532641851e+00
2024-09-29T13:46:00.000000000 -5.984632359855105e+03 -2.938841262753133e+03 -2.313841442857744e+03 -2.672057834511377e+00 -7.240313511610443e-02  7.023366448020866e+00
2024-09-29T13:47:00.000000000 -6.132625963997615e+03 -2.937181390973710e+03 -1.887989530941326e+03 -2.259352598715569e+00  1.277273035988718e-01  7.166859336032558e+00
2024-09-29T13:48:00.000000000 -6.255566812539204e+03 -2.923522822717212e+03 -1.454404322873169e+03 -1.837251074419872e+00  3.274159403557920e-01  7.281049373822161e+00
2024-09-29T13:49:00.000000000 -6.352942843783600e+03 -2.897916781145254e+03 -1.014859517510020e+03 -1.407485525511624e+00  5.258395365069878e-01  7.365442311599181e+00
2024-09-29T13:50:00.000000000 -6.424347133290093e+03 -2.860463786267705e+03 -5.711546638443605e+02 -9.718236379226988e-01  7.221784581393448e-01  7.419667764749303e+00
2024-09-29T13:51:00.000000000 -6.469479665424758e+03 -2.811313335336376e+03 -1.251077550824826e+02 -5.320614121081728e-01  9.156202308536689e-01  7.443482163844226e+00
2024-09-29T13:52:00.000000000 -6.488148806770618e+03 -2.750663351742344e+03  3.214525186290134e+02 -9.001434756645980e-02  1.105363648882762e+00  7.436770782499837e+00
2024-09-29T13:53:00.000000000 -6.480272223556322e+03 -2.678759407256795e+03  7.666943893716599e+02  3.524910694658772e-01  1.290622496498329e+00  7.399547675465422e+00
2024-09-29T13:54:00.000000000 -6.445877298545193e+03 -2.595893695065414e+03  1.208790849911875e+03  7.936247660172505e-01  1.470628914538252e+00  7.331955540956142e+00
2024-09-29T13:55:00.000000000 -6.385101129560840e+03 -2.502403843936062e+03  1.645927307808606e+03  1.231560988001374e+00  1.644636875577992e+00  7.234266123969801e+00
2024-09-29T13:56:00.000000000 -6.298190021545769e+03 -2.398671523751717e+03  2.076309246615426e+03  1.664487397772118e+00  1.811925582355836e+00  7.106879211604741e+00
2024-09-29T13:57:00.000000000 -6.185498332479513e+03 -2.285120764372640e+03  2.498170080037307e+03  2.090613738084651e+00  1.971802573535453e+00  6.950320083858767e+00
2024-09-29T13:58:00.000000000 -6.047487168876912e+03 -2.162216354234328e+03  2.909778057456345e+03  2.508178881485328e+00  2.123606712571681e+00  6.765236989048495e+00
2024-09-29T13:59:00.000000000 -5.884722041687484e+03 -2.030461582349172e+03  3.309444323416525e+03  2.915459334009794e+00  2.266711859245039e+00  6.552397846267609e+00
2024-09-29T14:00:00.000000000 -5.697871085892850e+03 -1.890396531431934e+03  3.695528797839502e+03  3.310775664231084e+00  2.400529092352488e+00  6.312686661311517e+00
2024-09-29T14:01:00.000000000 -5.487701201635147e+03 -1.742595092861487e+03  4.066448700054781e+03  3.692501407572289e+00  2.524509247275633e+00  6.047098346982271e+00
2024-09-29T14:02:00.000000000 -5.255074878405878e+03 -1.587662772684955e+03  4.420684260482710e+03  4.059069063101716e+00  2.638144398363317e+00  5.756734107791775e+00
2024-09-29T14:03:00.000000000 -5.000946747435727e+03 -1.426234289680400e+03  4.756784759635353e+03  4.408975600639709e+00  2.740969577952094e+00  5.442796759248162e+00
2024-09-29T14:04:00.000000000 -4.726359769746809e+03 -1.258971040725895e+03  5.073374372192252e+03  4.740788319620646e+00  2.832564957365652e+00  5.106586285648524e+00
2024-09-29T14:05:00.000000000 -4.432440932621842e+03 -1.086558396700328e+03  5.369157712392824e+03  5.053151622852392e+00  2.912558168053285e+00  4.749494154379244e+00
2024-09-29T14:06:00.000000000 -4.120395724539469e+03 -9.097024074597821e+02  5.642925747842552e+03  5.344793451942123e+00  2.980625863815646e+00  4.372995123292237e+00
2024-09-29T14:07:00.000000000 -3.791503463841053e+03 -7.291270805178290e+02  5.893560236746081e+03  5.614528918638365e+00  3.036494096803735e+00  3.978640540482847e+00
2024-09-29T14:08:00.000000000 -3.447111856703567e+03 -5.455713771365815e+02  6.120038135862944e+03  5.861264353813763e+00  3.079938999577183e+00  3.568052136643721e+00
2024-09-29T14:09:00.000000000 -3.088631300600621e+03 -3.597861201926847e+02  6.321435695765436e+03  6.084001325402591e+00  3.110787630932574e+00  3.142915285108621e+00
2024-09-29T14:10:00.000000000 -2.717529261362180e+03 -1.725310168615439e+02  6.496931988831106e+03  6.281839983734635e+00  3.128918607469852e+00  2.704972288743023e+00
2024-09-29T14:11:00.000000000 -2.335324017058633e+03  1.542856526455501e+01  6.645812201684199e+03  6.453982655687260e+00  3.134262523921557e+00  2.256015202851321e+00
2024-09-29T14:12:00.000000000 -1.943578690359111e+03  2.033245929702816e+02  6.767470313239987e+03  6.599736883719006e+00  3.126801883241725e+00  1.797878455656428e+00
2024-09-29T14:13:00.000000000 -1.543894693026488e+03  3.903895503140499e+02  6.861411456095924e+03  6.718517539376609e+00  3.106570642817723e+00  1.332430964370475e+00
2024-09-29T14:14:00.000000000 -1.137905250619514e+03  5.758595097506759e+02  6.927253766720067e+03  6.809848288465252e+00  3.073653852522928e+00  8.615690112307490e-01
